NORAD_CAT_ID,OBJECT_NAME,OBJECT_TYPE,EPOCH,MEAN_MOTION,ECCENTRICITY,INCLINATION,RA_OF_ASC_NODE,ARG_OF_PERICENTER,MEAN_ANOMALY,BSTAR,MEAN_MOTION_DOT,MEAN_MOTION_DDOT,TLE_LINE0,TLE_LINE1,TLE_LINE2,SEMIMAJOR_AXIS,PERIOD,APOGEE,PERIGEE,DECAYED
53421.0,STARLINK-4545,PAYLOAD,2023-04-07 18:01:56,15.08858523,9.72e-05,53.2153,223.7923,96.5064,263.6039,0.00044535,6.811e-05,0.0,0 STARLINK-4545,1 53421U 22097AK  23097.75134626  .00006811  00000-0  44535-3 0  9990,2 53421  53.2153 223.7923 0000972  96.5064 263.6039 15.08858523 37095,6917.824,95.436,540.361,539.016,0.0
53421.0,STARLINK-4545,PAYLOAD,2023-04-08 01:58:52,15.08835597,0.0001495,53.2153,222.3079,73.2266,286.889,-1.6016e-05,-5.43e-06,0.0,0 STARLINK-4545,1 53421U 22097AK  23098.08255713 -.00000543  00000-0 -16016-4 0  9990,2 53421  53.2153 222.3079 0001495  73.2266 286.8890 15.08835597 37143,6917.894,95.438,540.793,538.725,0.0
53421.0,STARLINK-4545,PAYLOAD,2023-04-08 13:06:34,15.08839093,0.0001141,53.2142,220.2251,84.071,276.0412,1.7277e-05,-1.3e-07,0.0,0 STARLINK-4545,1 53421U 22097AK  23098.54623483 -.00000013  00000-0  17277-4 0  9995,2 53421  53.2142 220.2251 0001141  84.0710 276.0412 15.08839093 37676,6917.883,95.438,540.537,538.959,0.0
53421.0,STARLINK-4545,PAYLOAD,2023-04-09 08:11:12,15.08840301,0.000104,53.2139,216.6552,101.6023,258.5086,0.00014957,2.093e-05,0.0,0 STARLINK-4545,1 53421U 22097AK  23099.34111546  .00002093  00000-0  14957-3 0  9996,2 53421  53.2139 216.6552 0001040 101.6023 258.5086 15.08840301 37335,6917.879,95.438,540.464,539.025,0.0
53421.0,STARLINK-4545,PAYLOAD,2023-04-09 11:21:58,15.08839689,9.29e-05,53.2136,216.0605,98.9482,261.1615,0.00013618,1.88e-05,0.0,0 STARLINK-4545,1 53421U 22097AK  23099.47359548  .00001880  00000-0  13618-3 0  9992,2 53421  53.2136 216.0605 0000929  98.9482 261.1615 15.08839689 37815,6917.881,95.438,540.389,539.104,0.0
53421.0,STARLINK-4545,PAYLOAD,2023-04-09 14:32:44,15.08842672,9.82e-05,53.2139,215.4656,102.109,258.0012,0.00016658,2.365e-05,0.0,0 STARLINK-4545,1 53421U 22097AK  23099.60607446  .00002365  00000-0  16658-3 0  9996,2 53421  53.2139 215.4656 0000982 102.1090 258.0012 15.08842672 37833,6917.872,95.437,540.417,539.058,0.0
53421.0,STARLINK-4545,PAYLOAD,2023-04-10 08:02:00,15.0882496,0.0001063,53.2156,212.1956,118.4983,241.6116,0.00055644,8.575e-05,0.0,0 STARLINK-4545,1 53421U 22097AK  23100.33472546  .00008575  00000-0  55644-3 0  9997,2 53421  53.2156 212.1956 0001063 118.4983 241.6116 15.08824960 37485,6917.926,95.439,540.527,539.056,0.0
53421.0,STARLINK-4545,PAYLOAD,2023-04-11 11:03:32,15.08839132,0.0001315,53.2136,207.1417,107.7999,252.3136,-4.745e-05,-1.043e-05,0.0,0 STARLINK-4545,1 53421U 22097AK  23101.46079227 -.00001043  00000-0 -47450-4 0  9993,2 53421  53.2136 207.1417 0001315 107.7999 252.3136 15.08839132 38116,6917.883,95.438,540.658,538.838,0.0
53421.0,STARLINK-4545,PAYLOAD,2023-04-12 12:29:42,15.08834635,0.000103,53.2137,202.3838,102.572,257.5387,3.5661e-05,2.8e-06,0.0,0 STARLINK-4545,1 53421U 22097AK  23102.52063632  .00000280  00000-0  35661-4 0  9995,2 53421  53.2137 202.3838 0001030 102.5720 257.5387 15.08834635 37814,6917.897,95.438,540.474,539.049,0.0
53421.0,STARLINK-4545,PAYLOAD,2023-04-12 23:37:24,15.08842359,0.0001403,53.216,200.3021,91.0257,269.0896,0.00021003,3.056e-05,0.0,0 STARLINK-4545,1 53421U 22097AK  23102.98431378  .00003056  00000-0  21003-3 0  9999,2 53421  53.2160 200.3021 0001403  91.0257 269.0896 15.08842359 38347,6917.873,95.437,540.709,538.768,0.0
53421.0,STARLINK-4545,PAYLOAD,2023-04-13 18:42:01,15.08857383,0.0001007,53.2134,196.7334,95.1372,264.9735,0.00032023,4.815e-05,0.0,0 STARLINK-4545,1 53421U 22097AK  23103.77918488  .00004815  00000-0  32023-3 0  9997,2 53421  53.2134 196.7334 0001007  95.1372 264.9735 15.08857383 38008,6917.827,95.436,540.389,538.996,0.0
53421.0,STARLINK-4545,PAYLOAD,2023-04-14 12:11:17,15.0883598,0.0001375,53.2147,193.464,77.0493,283.0653,8.2962e-05,1.033e-05,0.0,0 STARLINK-4545,1 53421U 22097AK  23104.50784124  .00001033  00000-0  82962-4 0  9994,2 53421  53.2147 193.4640 0001375  77.0493 283.0653 15.08835980 38579,6917.893,95.438,540.709,538.806,0.0
53421.0,STARLINK-4545,PAYLOAD,2023-04-14 23:18:59,15.08839184,0.0001787,53.2162,191.3809,77.2373,282.8819,6.7118e-05,7.8e-06,0.0,0 STARLINK-4545,1 53421U 22097AK  23104.97152099  .00000780  00000-0  67118-4 0  9999,2 53421  53.2162 191.3809 0001787  77.2373 282.8819 15.08839184 38184,6917.883,95.438,540.984,538.512,0.0
53421.0,STARLINK-4545,PAYLOAD,2023-04-15 12:02:03,15.08858586,0.0001366,53.2151,189.0004,108.6738,251.4402,0.00021567,3.148e-05,0.0,0 STARLINK-4545,1 53421U 22097AK  23105.50142898  .00003148  00000-0  21567-3 0  9993,2 53421  53.2151 189.0004 0001366 108.6738 251.4402 15.08858586 38727,6917.824,95.436,540.634,538.744,0.0
53421.0,STARLINK-4545,PAYLOAD,2023-04-15 16:48:12,15.08865936,0.0001034,53.2131,188.1073,105.5141,254.5965,0.0005289,8.146e-05,0.0,0 STARLINK-4545,1 53421U 22097AK  23105.70014525  .00008146  00000-0  52890-3 0  9996,2 53421  53.2131 188.1073 0001034 105.5141 254.5965 15.08865936 38755,6917.801,95.436,540.381,538.951,0.0
53421.0,STARLINK-4545,PAYLOAD,2023-04-16 05:31:18,15.08830692,8.72e-05,53.2151,185.7288,111.0885,249.0201,3.3769e-05,2.5e-06,0.0,0 STARLINK-4545,1 53421U 22097AK  23106.23008034  .00000250  00000-0  33769-4 0  9996,2 53421  53.2151 185.7288 0000872 111.0885 249.0201 15.08830692 38375,6917.909,95.438,540.377,539.171,0.0
53421.0,STARLINK-4545,PAYLOAD,2023-04-16 11:52:51,15.08845092,0.0001522,53.2139,184.5372,116.7505,243.3643,0.00012417,1.689e-05,0.0,0 STARLINK-4545,1 53421U 22097AK  23106.49503501  .00001689  00000-0  12417-3 0  9996,2 53421  53.2139 184.5372 0001522 116.7505 243.3643 15.08845092 38878,6917.865,95.437,540.783,538.677,0.0
53421.0,STARLINK-4545,PAYLOAD,2023-04-16 15:03:37,15.08848522,0.0001715,53.2138,183.941,128.7543,231.3603,0.00022598,3.311e-05,0.0,0 STARLINK-4545,1 53421U 22097AK  23106.62751270  .00003311  00000-0  22598-3 0  9994,2 53421  53.2138 183.9410 0001715 128.7543 231.3603 15.08848522 38898,6917.854,95.437,540.906,538.533,0.0
53421.0,STARLINK-4545,PAYLOAD,2023-04-17 05:22:06,15.0883123,0.0001297,53.2163,181.2692,97.9773,262.1366,-0.00010626,-1.978e-05,0.0,0 STARLINK-4545,1 53421U 22097AK  23107.22368288 -.00001978  00000-0 -10626-3 0  9992,2 53421  53.2163 181.2692 0001297  97.9773 262.1366 15.08831230 38522,6917.907,95.438,540.669,538.875,0.0
53421.0,STARLINK-4545,PAYLOAD,2023-04-17 13:19:01,15.08839137,0.0001016,53.2148,179.7829,95.1891,264.9217,0.00091191,0.00014255,0.0,0 STARLINK-4545,1 53421U 22097AK  23107.55488376  .00014255  00000-0  91191-3 0  9995,2 53421  53.2148 179.7829 0001016  95.1891 264.9217 15.08839137 39035,6917.883,95.438,540.451,539.045,0.0
53421.0,STARLINK-4545,PAYLOAD,2023-04-17 14:54:24,15.08846549,9.92e-05,53.2149,179.4845,104.0862,256.024,0.0010888,0.00017086,0.0,0 STARLINK-4545,1 53421U 22097AK  23107.62112249  .00017086  00000-0  10888-2 0  9994,2 53421  53.2149 179.4845 0000992 104.0862 256.0240 15.08846549 38583,6917.86,95.437,540.412,539.039,0.0
53421.0,STARLINK-4545,PAYLOAD,2023-04-17 21:15:57,15.08858702,9.33e-05,53.2152,178.2954,101.7182,258.3915,0.0014609,0.00023051,0.0,0 STARLINK-4545,1 53421U 22097AK  23107.88608047  .00023051  00000-0  14609-2 0  9992,2 53421  53.2152 178.2954 0000933 101.7182 258.3915 15.08858702 39083,6917.823,95.436,540.334,539.043,0.0
53421.0,STARLINK-4545,PAYLOAD,2023-04-18 09:59:03,15.08841463,0.0001074,53.2152,175.9144,91.4476,268.6639,0.00098827,0.00015476,0.0,0 STARLINK-4545,1 53421U 22097AK  23108.41600757  .00015476  00000-0  98827-3 0  9999,2 53421  53.2152 175.9144 0001074  91.4476 268.6639 15.08841463 39168,6917.876,95.437,540.484,538.998,0.0
53421.0,STARLINK-4545,PAYLOAD,2023-04-19 13:00:36,15.08844794,0.0001367,53.2138,170.8608,80.4849,279.6298,0.00033744,5.087e-05,0.0,0 STARLINK-4545,1 53421U 22097AK  23109.54208567  .00005087  00000-0  33744-3 0  9991,2 53421  53.2138 170.8608 0001367  80.4849 279.6298 15.08844794 39330,6917.866,95.437,540.676,538.785,0.0
53421.0,STARLINK-4545,PAYLOAD,2023-04-19 14:35:59,15.0885406,0.0001172,53.2153,170.5657,89.0141,271.0986,0.00049191,7.552e-05,0.0,0 STARLINK-4545,1 53421U 22097AK  23109.60832275  .00007552  00000-0  49191-3 0  9999,2 53421  53.2153 170.5657 0001172  89.0141 271.0986 15.08854060 39340,6917.837,95.437,540.513,538.892,0.0
53421.0,STARLINK-4545,PAYLOAD,2023-04-20 03:19:04,15.08833576,8.31e-05,53.2145,168.1847,100.3091,259.7995,0.00012467,1.697e-05,0.0,0 STARLINK-4545,1 53421U 22097AK  23110.13824762  .00001697  00000-0  12467-3 0  9991,2 53421  53.2145 168.1847 0000831 100.3091 259.7995 15.08833576 38966,6917.9,95.438,540.34,539.19,0.0
53421.0,STARLINK-4545,PAYLOAD,2023-04-20 08:05:14,15.08833715,9.74e-05,53.2137,167.2943,82.4365,277.6738,0.00024421,3.6e-05,0.0,0 STARLINK-4545,1 53421U 22097AK  23110.33696928  .00003600  00000-0  24421-3 0  9993,2 53421  53.2137 167.2943 0000974  82.4365 277.6738 15.08833715 39450,6917.9,95.438,540.438,539.091,0.0
53421.0,STARLINK-4545,PAYLOAD,2023-04-20 20:48:19,15.08837694,0.0001118,53.2134,164.9154,93.6228,266.4892,0.00039492,6.002e-05,0.0,0 STARLINK-4545,1 53421U 22097AK  23110.86689117  .00006002  00000-0  39492-3 0  9996,2 53421  53.2134 164.9154 0001118  93.6228 266.4892 15.08837694 39534,6917.887,95.438,540.526,538.979,0.0
53421.0,STARLINK-4545,PAYLOAD,2023-04-21 09:31:24,15.0883855,9.45e-05,53.2129,162.5347,100.4406,259.6693,0.00076667,0.00011934,0.0,0 STARLINK-4545,1 53421U 22097AK  23111.39681385  .00011934  00000-0  76667-3 0  9999,2 53421  53.2129 162.5347 0000945 100.4406 259.6693 15.08838550 39612,6917.885,95.438,540.404,539.096,0.0
53421.0,STARLINK-4545,PAYLOAD,2023-04-21 20:39:06,15.08846189,0.0001051,53.2117,160.4521,101.5664,258.5446,0.00085525,0.00013352,0.0,0 STARLINK-4545,1 53421U 22097AK  23111.86049399  .00013352  00000-0  85525-3 0  9993,2 53421  53.2117 160.4521 0001051 101.5664 258.5446 15.08846189 39685,6917.861,95.437,540.454,538.999,0.0
